[{"OBJECT_NAME":"STARLINK-2455","OBJECT_ID":"2021-027AB","EPOCH":"2026-03-10T00:00:02.999808","MEAN_MOTION":15.10495532,"ECCENTRICITY":0.00011292,"INCLINATION":53.0663,"RA_OF_ASC_NODE":150.1947,"ARG_OF_PERICENTER":69.2437,"MEAN_ANOMALY":1.9379,"EPHEMERIS_TYPE":0,"CLASSIFICATION_TYPE":"U","NORAD_CAT_ID":48117,"ELEMENT_SET_NO":999,"REV_AT_EPOCH":574,"BSTAR":0.0048102182,"MEAN_MOTION_DOT":0.00080749,"MEAN_MOTION_DDOT":0},{"OBJECT_NAME":"OBJECT A","OBJECT_ID":"2022-023A","EPOCH":"2026-03-07T09:13:29.633664","MEAN_MOTION":15.18202647,"ECCENTRICITY":0.00985337,"INCLINATION":63.4765,"RA_OF_ASC_NODE":256.024,"ARG_OF_PERICENTER":341.4326,"MEAN_ANOMALY":18.3199,"EPHEMERIS_TYPE":0,"CLASSIFICATION_TYPE":"U","NORAD_CAT_ID":51946,"ELEMENT_SET_NO":999,"REV_AT_EPOCH":22226,"BSTAR":0.00019500419,"MEAN_MOTION_DOT":4.303e-5,"MEAN_MOTION_DDOT":0}]
